OBJECT_NAME,OBJECT_ID,EPOCH,MEAN_MOTION,ECCENTRICITY,INCLINATION,RA_OF_ASC_NODE,ARG_OF_PERICENTER,MEAN_ANOMALY,EPHEMERIS_TYPE,CLASSIFICATION_TYPE,NORAD_CAT_ID,ELEMENT_SET_NO,REV_AT_EPOCH,BSTAR,MEAN_MOTION_DOT,MEAN_MOTION_DDOT
BEIDOU-2 IGSO-5 (C10),2011-073A,2026-06-08T18:57:08.872992,1.00274891,.0113642,47.6949,271.6515,221.6649,139.8991,0,U,37948,999,5305,0,-.162E-5,0
LUCH 5A (SDCM/PRN 140),2011-074B,2026-06-08T15:01:07.500864,1.00269774,.0002316,8.7313,73.9336,16.8767,198.4781,0,U,37951,999,5296,0,-.35E-6,0
BEIDOU-2 G5 (C05),2012-008A,2026-06-08T21:02:47.914080,1.00270295,.0009358,3.5521,69.7477,275.8683,286.0238,0,U,38091,999,5228,0,.73E-6,0
BEIDOU-2 M3 (C11),2012-018A,2026-06-08T01:26:58.379424,1.86230160,.00199345,55.7663,305.1830,274.8014,84.9622,0,U,38250,999,9577,0,-.55E-6,0
BEIDOU-2 M4 (C12),2012-018B,2026-06-08T12:42:40.996224,1.86229808,.00111046,55.6662,304.3816,277.4106,82.4544,0,U,38251,999,9578,0,-.56E-6,0
SES-5 (EGNOS/PRN 136),2012-036A,2026-06-08T15:07:05.857824,1.00271642,.0002005,0.0520,307.9114,126.2440,54.6226,0,U,38652,999,4437,0,.5E-6,0
BEIDOU-2 M6 (C14),2012-050B,2026-06-07T03:58:20.062272,1.86230975,.00138872,56.5357,63.2259,355.8129,4.2034,0,U,38775,999,9312,0,-.39E-6,0
GSAT-10 (GAGAN/PRN 128),2012-051B,2026-06-08T17:12:01.418112,1.00271593,.0007954,0.0142,274.8392,174.5967,148.7064,0,U,38779,999,5001,0,-.149E-5,0
GPS BIIF-3  (PRN 24),2012-053A,2026-06-08T08:12:31.840416,2.00567341,.01798034,53.5844,143.9617,65.6346,296.2298,0,U,38833,999,9926,0,.102E-5,0
GSAT0103 (GALILEO-FM3),2012-055A,2026-06-08T16:14:35.992608,1.70475307,.0005122,55.8003,101.7793,302.9774,56.9469,0,U,38857,999,8486,0,.26E-6,0
BEIDOU-2 G6 (C02),2012-059A,2026-06-08T17:44:50.572608,1.00274428,.0010182,4.3991,73.6116,324.9107,208.8147,0,U,38953,999,4982,0,-.16E-5,0
LUCH 5B (SDCM/PRN 125),2012-061A,2026-06-07T23:37:00.003648,1.00273996,.00018264,10.4613,49.9703,137.8751,46.4873,0,U,38977,999,4951,0,-.125E-5,0
COSMOS 2485 (747),2013-019A,2026-06-07T01:19:59.278080,2.13103506,.00234642,65.4143,73.9444,234.9067,124.8959,0,U,39155,999,10206,0,-.9E-7,0
GPS BIIF-4  (PRN 27),2013-023A,2026-06-07T17:02:37.851648,2.00563517,.0141597,54.5116,269.3599,50.9983,310.2747,0,U,39166,999,9569,0,-.32E-6,0
IRNSS-1A,2013-034A,2026-05-22T20:37:38.469792,1.00280263,.00166187,35.6649,64.2334,185.3754,355.4646,0,U,39199,999,4711,0,.59E-6,0
GPS BIIF-5  (PRN 30),2014-008A,2026-06-08T05:02:50.237088,2.00559228,.00842347,53.6532,149.6858,231.1273,128.1246,0,U,39533,999,8950,0,.106E-5,0
ASTRA 5B (EGNOS/PRN 123),2014-011B,2026-06-08T17:16:58.388736,1.00270153,.0002076,0.0557,319.2795,105.9688,114.6004,0,U,39617,999,4458,0,.153E-5,0
COSMOS 2492 (754),2014-012A,2026-06-08T10:07:59.244672,2.13103560,.00105121,65.3035,314.2341,326.2439,33.6874,0,U,39620,999,9505,0,-.3E-6,0
IRNSS-1B,2014-017A,2026-05-19T20:39:38.653920,1.00280229,.00242269,28.9733,240.8911,185.2284,176.5740,0,U,39635,999,4451,0,.103E-5,0
LUCH 5V (SDCM/PRN 141),2014-023A,2026-06-08T18:57:53.800992,1.00267457,.0002817,5.1118,69.8346,32.5615,173.9299,0,U,39727,999,4427,0,-.252E-5,0
GPS BIIF-6  (PRN 06),2014-026A,2026-06-07T23:41:28.922784,2.00561693,.003825,56.5029,331.8757,326.7038,33.0643,0,U,39741,999,8835,0,-.57E-6,0
COSMOS 2500 (755),2014-032A,2026-06-08T14:12:35.781120,2.13106216,.0006956,65.2379,313.9758,182.7294,177.2652,0,U,40001,999,9327,0,-.3E-6,0
GPS BIIF-7  (PRN 09),2014-045A,2026-06-08T01:53:28.762368,2.00557813,.0032926,55.3475,88.8279,118.3741,241.9535,0,U,40105,999,8589,0,.5E-7,0
GSAT0201 (GALILEO 5),2014-050A,2026-06-08T06:06:00.791712,1.85520056,.16731725,48.8853,273.8028,179.0435,181.3650,0,U,40128,999,7815,0,-.52E-6,0
GSAT0202 (GALILEO 6),2014-050B,2026-06-07T23:17:53.822112,1.85520640,.1674449,48.9024,272.8999,179.7650,180.3686,0,U,40129,999,8031,0,-.51E-6,0
IRNSS-1C,2014-061A,2026-06-08T20:24:34.856352,1.00270647,.0022645,6.4974,89.0865,1.4878,195.8228,0,U,40269,999,4260,0,-.145E-5,0
GPS BIIF-8  (PRN 03),2014-068A,2026-06-07T22:47:13.606656,2.00575653,.00668281,56.9813,31.3107,70.2442,290.5289,0,U,40294,999,8501,0,-.65E-6,0
COSMOS 2501 (702K),2014-075A,2026-06-08T09:14:06.669024,2.13101441,.0022459,63.6157,190.6768,212.1513,147.7783,0,U,40315,999,8966,0,.99E-6,0
GPS BIIF-9  (PRN 26),2015-013A,2026-06-08T14:04:05.839680,2.00551984,.0109392,53.1681,204.5335,40.1405,320.7391,0,U,40534,999,8165,0,.71E-6,0
GSAT0203 (GALILEO 7),2015-017A,2026-06-08T09:56:18.112128,1.70476076,.0002095,56.7896,341.8347,280.5229,79.4690,0,U,40544,999,6905,0,-.63E-6,0
GSAT0204 (GALILEO 8),2015-017B,2026-06-05T03:36:30.892320,1.70475724,.0001822,56.7982,341.9422,253.1460,106.8459,0,U,40545,999,3204,0,-.69E-6,0
