BEIDOU-2 IGSO-5         
1 37948U 11073A   26159.78968603 -.00000162  00000+0  00000+0 0  9991
2 37948  47.6949 271.6515 0113642 221.6649 139.8991  1.00274891 53051
LUCH-5A                 
1 37951U 11074B   26159.62578126 -.00000035  00000+0  00000+0 0  9995
2 37951   8.7313  73.9336 0002316  16.8767 198.4781  1.00269774 52963
BEIDOU-2 G5             
1 38091U 12008A   26159.87694345  .00000073  00000+0  00000+0 0  9999
2 38091   3.5521  69.7477 0009358 275.8683 286.0238  1.00270295 52285
BEIDOU-2 M3             
1 38250U 12018A   26159.06039791 -.00000055  00000+0  00000+0 0  9997
2 38250  55.7663 305.1830 0019934 274.8014  84.9622  1.86230160 95770
BEIDOU-2 M4             
1 38251U 12018B   26159.52964116 -.00000056  00000+0  00000+0 0  9998
2 38251  55.6662 304.3816 0011104 277.4106  82.4544  1.86229808 95780
SES-5                   
1 38652U 12036A   26159.62992891  .00000050  00000+0  00000+0 0  9998
2 38652   0.0520 307.9114 0002005 126.2440  54.6226  1.00271642 44370
BEIDOU-2 M6             
1 38775U 12050B   26158.16550998 -.00000039  00000+0  00000+0 0  9994
2 38775  56.5357  63.2259 0013887 355.8129   4.2034  1.86230975 93129
GSAT-10                 
1 38779U 12051B   26159.71668308 -.00000149  00000+0  00000+0 0  9998
2 38779   0.0142 274.8392 0007954 174.5967 148.7064  1.00271593 50016
NAVSTAR 67 (USA 239)    
1 38833U 12053A   26159.34203519  .00000102  00000+0  00000+0 0  9997
2 38833  53.5844 143.9617 0179803  65.6346 296.2298  2.00567341 99267
GSAT0103 (GALILEO-FM3)  
1 38857U 12055A   26159.67680547  .00000026  00000+0  00000+0 0  9996
2 38857  55.8003 101.7793 0005122 302.9774  56.9469  1.70475307 84863
BEIDOU-2 G6             
1 38953U 12059A   26159.73947422 -.00000160  00000+0  00000+0 0  9992
2 38953   4.3991  73.6116 0010182 324.9107 208.8147  1.00274428 49829
LUCH-5B                 
1 38977U 12061A   26158.98402782 -.00000125  00000+0  00000+0 0  9993
2 38977  10.4613  49.9703 0001826 137.8751  46.4873  1.00273996 49510
COSMOS 2485 [GLONASS-M] 
1 39155U 13019A   26158.05554720 -.00000009  00000+0  00000+0 0  9995
2 39155  65.4143  73.9444 0023464 234.9067 124.8959  2.13103506102067
NAVSTAR 68 (USA 242)    
1 39166U 13023A   26158.71016032 -.00000032  00000+0  00000+0 0  9990
2 39166  54.5116 269.3599 0141597  50.9983 310.2747  2.00563517 95695
IRNSS-1A                
1 39199U 13034A   26142.85947303  .00000059  00000+0  00000+0 0  9998
2 39199  35.6649  64.2334 0016618 185.3754 355.4646  1.00280263 47111
NAVSTAR 69 (USA 248)    
1 39533U 14008A   26159.21030367  .00000106  00000+0  00000+0 0  9996
2 39533  53.6532 149.6858 0084234 231.1273 128.1246  2.00559228 89509
ASTRA 5B                
1 39617U 14011B   26159.72012024  .00000153  00000+0  00000+0 0  9991
2 39617   0.0557 319.2795 0002076 105.9688 114.6004  1.00270153 44589
COSMOS 2492 [GLONASS-M] 
1 39620U 14012A   26159.42221348 -.00000030  00000+0  00000+0 0  9999
2 39620  65.3035 314.2341 0010512 326.2439  33.6874  2.13103560 95051
IRNSS-1B                
1 39635U 14017A   26139.86086405  .00000103  00000+0  00000+0 0  9999
2 39635  28.9733 240.8911 0024226 185.2284 176.5740  1.00280229 44519
LUCH-5V                 
1 39727U 14023A   26159.79020603 -.00000252  00000+0  00000+0 0  9996
2 39727   5.1118  69.8346 0002817  32.5615 173.9299  1.00267457 44271
NAVSTAR 70 (USA 251)    
1 39741U 14026A   26158.98714031 -.00000057  00000+0  00000+0 0  9993
2 39741  56.5029 331.8757 0038250 326.7038  33.0643  2.00561693 88359
COSMOS 2500 [GLONASS-M] 
1 40001U 14032A   26159.59208080 -.00000030  00000+0  00000+0 0  9992
2 40001  65.2379 313.9758 0006956 182.7294 177.2652  2.13106216 93277
NAVSTAR 71 (USA 256)    
1 40105U 14045A   26159.07880512  .00000005  00000+0  00000+0 0  9991
2 40105  55.3475  88.8279 0032926 118.3741 241.9535  2.00557813 85890
GSAT0201 (GALILEO 5)    
1 40128U 14050A   26159.25417583 -.00000052  00000+0  00000+0 0  9999
2 40128  48.8853 273.8028 1673172 179.0435 181.3650  1.85520056 78156
GSAT0202 (GALILEO 6)    
1 40129U 14050B   26158.97076183 -.00000051  00000+0  00000+0 0  9994
2 40129  48.9024 272.8999 1674449 179.7650 180.3686  1.85520640 80316
IRNSS-1C                
1 40269U 14061A   26159.85040343 -.00000145  00000+0  00000+0 0  9992
2 40269   6.4974  89.0865 0022645   1.4878 195.8228  1.00270647 42600
NAVSTAR 72 (USA 258)    
1 40294U 14068A   26158.94946304 -.00000065  00000+0  00000+0 0  9999
2 40294  56.9813  31.3107 0066828  70.2442 290.5289  2.00575653 85019
COSMOS 2501 [GLONASS-K] 
1 40315U 14075A   26159.38479941  .00000099  00000+0  00000+0 0  9994
2 40315  63.6157 190.6768 0022459 212.1513 147.7783  2.13101441 89660
NAVSTAR 73 (USA 260)    
1 40534U 15013A   26159.58617870  .00000071  00000+0  00000+0 0  9997
2 40534  53.1681 204.5335 0109392  40.1405 320.7391  2.00551984 81651
GSAT0203 (GALILEO 7)    
1 40544U 15017A   26159.41409852 -.00000063  00000+0  00000+0 0  9995
2 40544  56.7896 341.8347 0002095 280.5229  79.4690  1.70476076 69057
GSAT0204 (GALILEO 8)    
1 40545U 15017B   26156.15035755 -.00000069  00000+0  00000+0 0  9997
2 40545  56.7982 341.9422 0001822 253.1460 106.8459  1.70475724 32045
